[{"OBJECT_NAME":"NISAR","OBJECT_ID":"2025-163A","EPOCH":"2026-03-09T23:23:00.539520","MEAN_MOTION":14.42502005,"ECCENTRICITY":0.00012255,"INCLINATION":98.4063,"RA_OF_ASC_NODE":258.0769,"ARG_OF_PERICENTER":90.8877,"MEAN_ANOMALY":269.2453,"EPHEMERIS_TYPE":0,"CLASSIFICATION_TYPE":"U","NORAD_CAT_ID":65053,"ELEMENT_SET_NO":999,"REV_AT_EPOCH":3208,"BSTAR":7.226955e-6,"MEAN_MOTION_DOT":-2.0e-7,"MEAN_MOTION_DDOT":0},{"OBJECT_NAME":"COSMOS 1331","OBJECT_ID":"1982-001A","EPOCH":"2026-03-09T21:21:46.034496","MEAN_MOTION":14.37696783,"ECCENTRICITY":0.00245515,"INCLINATION":74.0499,"RA_OF_ASC_NODE":338.5644,"ARG_OF_PERICENTER":306.5469,"MEAN_ANOMALY":53.3424,"EPHEMERIS_TYPE":0,"CLASSIFICATION_TYPE":"U","NORAD_CAT_ID":13027,"ELEMENT_SET_NO":999,"REV_AT_EPOCH":31330,"BSTAR":7.9055569e-5,"MEAN_MOTION_DOT":2.12e-6,"MEAN_MOTION_DDOT":0}]
